NORAD_CAT_ID,OBJECT_NAME,OBJECT_TYPE,EPOCH,MEAN_MOTION,ECCENTRICITY,INCLINATION,RA_OF_ASC_NODE,ARG_OF_PERICENTER,MEAN_ANOMALY,BSTAR,MEAN_MOTION_DOT,MEAN_MOTION_DDOT,TLE_LINE0,TLE_LINE1,TLE_LINE2,SEMIMAJOR_AXIS,PERIOD,APOGEE,PERIGEE,DECAYED
55930.0,STARLINK-5896,PAYLOAD,2023-09-08 18:51:38,14.98330498,0.000306,70.0,66.3044,271.2008,88.8801,-1.0063e-05,-2.13e-06,0.0,0 STARLINK-5896,1 55930U 23037S   23251.78586020 -.00000213  00000-0 -10063-4 0  9998,2 55930  70.0000  66.3044 0003060 271.2008  88.8801 14.98330498 27239,6950.191,96.107,574.183,569.93,0.0
55930.0,STARLINK-5896,PAYLOAD,2023-09-09 10:52:59,14.98326965,0.0002964,70.0004,64.6214,272.3421,87.7399,-1.7507e-05,-3.02e-06,0.0,0 STARLINK-5896,1 55930U 23037S   23252.45346272 -.00000302  00000-0 -17507-4 0  9995,2 55930  70.0004  64.6214 0002964 272.3421  87.7399 14.98326965 27678,6950.202,96.107,574.127,570.007,0.0
55930.0,STARLINK-5896,PAYLOAD,2023-09-09 14:05:15,14.98327681,0.0002983,70.0003,64.2848,271.877,88.2047,-2.5111e-05,-3.93e-06,0.0,0 STARLINK-5896,1 55930U 23037S   23252.58698255 -.00000393  00000-0 -25111-4 0  9990,2 55930  70.0003  64.2848 0002983 271.8770  88.2047 14.98327681 27355,6950.2,96.107,574.138,569.992,0.0
55930.0,STARLINK-5896,PAYLOAD,2023-09-10 10:54:59,14.98331548,0.0003003,70.0004,62.097,268.4932,91.5883,2.145e-05,1.63e-06,0.0,0 STARLINK-5896,1 55930U 23037S   23253.45485882  .00000163  00000-0  21450-4 0  9992,2 55930  70.0004  62.0970 0003003 268.4932  91.5883 14.98331548 27828,6950.188,96.107,574.14,569.966,0.0
55930.0,STARLINK-5896,PAYLOAD,2023-09-10 14:07:15,14.98331198,0.0003001,70.0006,61.7609,265.5873,94.4943,2.7036e-05,2.3e-06,0.0,0 STARLINK-5896,1 55930U 23037S   23253.58837840  .00000230  00000-0  27036-4 0  9992,2 55930  70.0006  61.7609 0003001 265.5873  94.4943 14.98331198 27500,6950.189,96.107,574.14,569.968,0.0
55930.0,STARLINK-5896,PAYLOAD,2023-09-11 14:09:17,14.98327883,0.0003019,70.0008,59.2359,270.6793,89.4021,1.7456e-05,1.15e-06,0.0,0 STARLINK-5896,1 55930U 23037S   23254.58978030  .00000115  00000-0  17456-4 0  9997,2 55930  70.0008  59.2359 0003019 270.6793  89.4021 14.98327883 27656,6950.199,96.107,574.163,569.966,0.0
55930.0,STARLINK-5896,PAYLOAD,2023-09-11 17:21:33,14.98328964,0.0003004,70.0008,58.8992,269.9857,90.0957,2.4163e-05,1.95e-06,0.0,0 STARLINK-5896,1 55930U 23037S   23254.72329945  .00000195  00000-0  24163-4 0  9999,2 55930  70.0008  58.8992 0003004 269.9857  90.0957 14.98328964 28018,6950.196,96.107,574.149,569.973,0.0
55930.0,STARLINK-5896,PAYLOAD,2023-09-12 12:35:09,14.98328729,0.000317,70.0007,56.8788,269.5789,90.5007,1.9297e-05,1.37e-06,0.0,0 STARLINK-5896,1 55930U 23037S   23255.52441891  .00000137  00000-0  19297-4 0  9991,2 55930  70.0007  56.8788 0003170 269.5789  90.5007 14.98328729 27796,6950.197,96.107,574.265,569.859,0.0
55930.0,STARLINK-5896,PAYLOAD,2023-09-12 17:23:34,14.98323335,0.0003282,70.0006,56.3738,271.5431,88.5352,0.0001265,1.416e-05,0.0,0 STARLINK-5896,1 55930U 23037S   23255.72469948  .00001416  00000-0  12650-3 0  9992,2 55930  70.0006  56.3738 0003282 271.5431  88.5352 14.98323335 28166,6950.214,96.107,574.36,569.797,0.0
55930.0,STARLINK-5896,PAYLOAD,2023-09-12 20:35:49,14.9833913,0.0002858,70.0008,56.0371,269.2079,90.8752,-5.9302e-05,-8.01e-06,0.0,0 STARLINK-5896,1 55930U 23037S   23255.85821407 -.00000801  00000-0 -59302-4 0  9993,2 55930  70.0008  56.0371 0002858 269.2079  90.8752 14.98339130 27842,6950.165,96.106,574.016,570.043,0.0
55930.0,STARLINK-5896,PAYLOAD,2023-09-13 12:37:10,14.98332999,0.0003058,70.0006,54.3529,270.6116,89.4693,5.0449e-05,5.09e-06,0.0,0 STARLINK-5896,1 55930U 23037S   23256.52581303  .00000509  00000-0  50449-4 0  9992,2 55930  70.0006  54.3529 0003058 270.6116  89.4693 14.98332999 27942,6950.184,96.107,574.174,569.923,0.0
55930.0,STARLINK-5896,PAYLOAD,2023-09-13 20:37:50,14.98336568,0.0003073,70.0007,53.5118,271.7837,88.297,5.4252e-05,5.54e-06,0.0,0 STARLINK-5896,1 55930U 23037S   23256.85960970  .00000554  00000-0  54252-4 0  9995,2 55930  70.0007  53.5118 0003073 271.7837  88.2970 14.98336568 27993,6950.173,96.107,574.173,569.902,0.0
55930.0,STARLINK-5896,PAYLOAD,2023-09-14 11:03:03,14.98323784,0.0002882,70.0013,51.9968,272.8309,87.252,-0.00010137,-1.302e-05,0.0,0 STARLINK-5896,1 55930U 23037S   23257.46046273 -.00001302  00000-0 -10137-3 0  9991,2 55930  70.0013  51.9968 0002882 272.8309  87.2520 14.98323784 28423,6950.212,96.107,574.08,570.074,0.0
55930.0,STARLINK-5896,PAYLOAD,2023-09-14 12:39:12,14.98322239,0.0002919,70.0012,51.8285,272.7045,87.378,-9.8151e-05,-1.264e-05,0.0,0 STARLINK-5896,1 55930U 23037S   23257.52722369 -.00001264  00000-0 -98151-4 0  9995,2 55930  70.0012  51.8285 0002919 272.7045  87.3780 14.98322239 28096,6950.217,96.107,574.111,570.053,0.0
55930.0,STARLINK-5896,PAYLOAD,2023-09-14 20:39:52,14.98320241,0.0002961,70.0012,50.9869,272.9921,87.0899,-6.0275e-05,-8.12e-06,0.0,0 STARLINK-5896,1 55930U 23037S   23257.86102547 -.00000812  00000-0 -60275-4 0  9996,2 55930  70.0012  50.9869 0002961 272.9921  87.0899 14.98320241 28141,6950.223,96.108,574.146,570.03,0.0
55930.0,STARLINK-5896,PAYLOAD,2023-09-15 11:05:04,14.98334419,0.0003036,70.0009,49.472,272.6596,87.4215,9.4081e-06,1.9e-07,0.0,0 STARLINK-5896,1 55930U 23037S   23258.46185481  .00000019  00000-0  94081-5 0  9991,2 55930  70.0009  49.4720 0003036 272.6596  87.4215 14.98334419 28570,6950.179,96.107,574.154,569.934,0.0
55930.0,STARLINK-5896,PAYLOAD,2023-09-15 12:41:12,14.98334109,0.0003038,70.001,49.3037,272.6576,87.4236,6.6904e-06,-1.3e-07,0.0,0 STARLINK-5896,1 55930U 23037S   23258.52861491 -.00000013  00000-0  66904-5 0  9998,2 55930  70.0010  49.3037 0003038 272.6576  87.4236 14.98334109 28245,6950.18,96.107,574.157,569.934,0.0
55930.0,STARLINK-5896,PAYLOAD,2023-09-16 09:30:57,14.98322972,0.0003013,70.0011,47.1156,269.4044,90.6769,9.4038e-05,1.029e-05,0.0,0 STARLINK-5896,1 55930U 23037S   23259.39649837  .00001029  00000-0  94038-4 0  9997,2 55930  70.0011  47.1156 0003013 269.4044  90.6769 14.98322972 28715,6950.215,96.107,574.174,569.986,0.0
55930.0,STARLINK-5896,PAYLOAD,2023-09-16 12:43:13,14.98323915,0.0003112,70.001,46.7792,269.8654,90.2148,7.4587e-05,7.97e-06,0.0,0 STARLINK-5896,1 55930U 23037S   23259.53001872  .00000797  00000-0  74587-4 0  9992,2 55930  70.0010  46.7792 0003112 269.8654  90.2148 14.98323915 28395,6950.212,96.107,574.24,569.914,0.0
55930.0,STARLINK-5896,PAYLOAD,2023-09-17 12:45:14,14.98330957,0.0003049,70.0015,44.2548,270.2286,89.8524,-2.7497e-05,-4.21e-06,0.0,0 STARLINK-5896,1 55930U 23037S   23260.53141805 -.00000421  00000-0 -27497-4 0  9999,2 55930  70.0015  44.2548 0003049 270.2286  89.8524 14.98330957 28541,6950.19,96.107,574.174,569.936,0.0
55930.0,STARLINK-5896,PAYLOAD,2023-09-18 09:34:59,14.98326694,0.0003093,70.0015,42.0663,271.2117,88.8688,-2.5243e-05,-3.94e-06,0.0,0 STARLINK-5896,1 55930U 23037S   23261.39929962 -.00000394  00000-0 -25243-4 0  9998,2 55930  70.0015  42.0663 0003093 271.2117  88.8688 14.98326694 29014,6950.203,96.107,574.218,569.918,0.0
55930.0,STARLINK-5896,PAYLOAD,2023-09-18 12:47:15,14.98326827,0.0003098,70.0015,41.7297,271.0865,88.9939,-2.2242e-05,-3.58e-06,0.0,0 STARLINK-5896,1 55930U 23037S   23261.53281960 -.00000358  00000-0 -22242-4 0  9999,2 55930  70.0015  41.7297 0003098 271.0865  88.9939 14.98326827 28697,6950.203,96.107,574.221,569.915,0.0
55930.0,STARLINK-5896,PAYLOAD,2023-09-18 19:11:47,14.98332034,0.0003039,70.0015,41.0561,270.3751,89.706,1.7179e-05,1.12e-06,0.0,0 STARLINK-5896,1 55930U 23037S   23261.79985523  .00000112  00000-0  17179-4 0  9992,2 55930  70.0015  41.0561 0003039 270.3751  89.7060 14.98332034 28731,6950.187,96.107,574.164,569.939,0.0
55930.0,STARLINK-5896,PAYLOAD,2023-09-19 17:37:39,14.98340214,0.0002987,70.0017,38.6994,269.5438,90.5379,0.00010531,1.164e-05,0.0,0 STARLINK-5896,1 55930U 23037S   23262.73448500  .00001164  00000-0  10531-3 0  9998,2 55930  70.0017  38.6994 0002987 269.5438  90.5379 14.98340214 29214,6950.161,96.106,574.102,569.95,0.0
55930.0,STARLINK-5896,PAYLOAD,2023-09-20 12:51:17,14.98317356,0.0003351,70.0014,36.6799,276.415,83.6627,-9.2084e-05,-1.191e-05,0.0,0 STARLINK-5896,1 55930U 23037S   23263.53562453 -.00001191  00000-0 -92084-4 0  9997,2 55930  70.0014  36.6799 0003351 276.4150  83.6627 14.98317356 29339,6950.232,96.108,574.426,569.768,0.0
55930.0,STARLINK-5896,PAYLOAD,2023-09-20 19:15:50,14.98321472,0.0003222,70.0012,36.0071,271.2435,88.8355,-0.00010045,-1.291e-05,0.0,0 STARLINK-5896,1 55930U 23037S   23263.80266323 -.00001291  00000-0 -10045-3 0  9991,2 55930  70.0012  36.0071 0003222 271.2435  88.8355 14.98321472 29036,6950.219,96.108,574.324,569.845,0.0
55930.0,STARLINK-5896,PAYLOAD,2023-09-21 09:41:02,14.9833052,0.0002998,70.0024,34.4911,266.3058,93.7759,2.6764e-05,2.26e-06,0.0,0 STARLINK-5896,1 55930U 23037S   23264.40349630  .00000226  00000-0  26764-4 0  9992,2 55930  70.0024  34.4911 0002998 266.3058  93.7759 14.98330520 29463,6950.191,96.107,574.14,569.973,0.0
55930.0,STARLINK-5896,PAYLOAD,2023-09-21 12:53:19,14.9830692,0.0003484,70.0012,34.1552,269.5569,90.5191,0.00026601,3.081e-05,0.0,0 STARLINK-5896,1 55930U 23037S   23264.53702551  .00003081  00000-0  26601-3 0  9992,2 55930  70.0012  34.1552 0003484 269.5569  90.5191 14.98306920 29148,6950.264,96.108,574.551,569.708,0.0
55930.0,STARLINK-5896,PAYLOAD,2023-09-21 17:41:42,14.98338915,0.0003069,70.0023,33.6499,277.3804,82.7007,-0.00013012,-1.646e-05,0.0,0 STARLINK-5896,1 55930U 23037S   23264.73729605 -.00001646  00000-0 -13012-3 0  9992,2 55930  70.0023  33.6499 0003069 277.3804  82.7007 14.98338915 29173,6950.165,96.106,574.163,569.897,0.0
55930.0,STARLINK-5896,PAYLOAD,2023-09-22 11:19:10,14.9832877,0.0003209,70.0017,31.7992,274.029,86.0502,0.0001872,2.141e-05,0.0,0 STARLINK-5896,1 55930U 23037S   23265.47165248  .00002141  00000-0  18720-3 0  9991,2 55930  70.0017  31.7992 0003209 274.0290  86.0502 14.98328770 29627,6950.197,96.107,574.292,569.831,0.0
